start=new Date('2021-12-24T00:00:00.000Z').valueOf();
sats=[{"DECAY_DATE":null,"CLASSIFICATION_TYPE":"U","ECCENTRICITY":"0.00018870","MEAN_MOTION_DOT":"0.00014239","TLE_LINE2":"2 46698  53.0540 300.7150 0001887  47.9263 312.1887 15.06405784 65497","SITE":"AFETR","RA_OF_ASC_NODE":"300.7150","REF_FRAME":"TEME","SEMIMAJOR_AXIS":"6925.331","MEAN_ANOMALY":"312.1887","MEAN_MOTION":"15.06405784","FILE":"3249421","ARG_OF_PERICENTER":"47.9263","EPOCH":"2021-12-23T20:38:58.076160","COUNTRY_CODE":"US","PERIOD":"95.592","EPHEMERIS_TYPE":"0","TIME_SYSTEM":"UTC","REV_AT_EPOCH":"6549","ELEMENT_SET_NO":"999","PERIAPSIS":"545.889","INCLINATION":"53.0540","MEAN_ELEMENT_THEORY":"SGP4","LAUNCH_DATE":"2020-10-18","GP_ID":"192323507","OBJECT_ID":"2020-073AE","OBJECT_TYPE":"PAYLOAD","OBJECT_NAME":"STARLINK-1797","BSTAR":"0.00097271000000","APOAPSIS":"548.503","RCS_SIZE":"LARGE","TLE_LINE1":"1 46698U 20073AE  21357.86039440  .00014239  00000-0  97271-3 0  9995","CENTER_NAME":"EARTH","MEAN_MOTION_DDOT":"0.0000000000000","NORAD_CAT_ID":"46698"},{"DECAY_DATE":null,"CLASSIFICATION_TYPE":"U","ECCENTRICITY":"0.00016310","MEAN_MOTION_DOT":"0.00002441","TLE_LINE2":"2 46699  53.0567 300.7048 0001631  59.7858 300.3292 15.06403478 65498","SITE":"AFETR","RA_OF_ASC_NODE":"300.7048","REF_FRAME":"TEME","MEAN_ANOMALY":"300.3292","SEMIMAJOR_AXIS":"6925.338","MEAN_MOTION":"15.06403478","FILE":"3249421","ARG_OF_PERICENTER":"59.7858","EPOCH":"2021-12-23T20:44:14.094528","COUNTRY_CODE":"US","PERIOD":"95.592","EPHEMERIS_TYPE":"0","TIME_SYSTEM":"UTC","REV_AT_EPOCH":"6549","ELEMENT_SET_NO":"999","PERIAPSIS":"546.073","INCLINATION":"53.0567","MEAN_ELEMENT_THEORY":"SGP4","LAUNCH_DATE":"2020-10-18","GP_ID":"192323758","OBJECT_TYPE":"PAYLOAD","OBJECT_ID":"2020-073AF","OBJECT_NAME":"STARLINK-1799","BSTAR":"0.00018272000000","RCS_SIZE":"LARGE","APOAPSIS":"548.332","TLE_LINE1":"1 46699U 20073AF  21357.86405202  .00002441  00000-0  18272-3 0  9995","CENTER_NAME":"EARTH","MEAN_MOTION_DDOT":"0.0000000000000","NORAD_CAT_ID":"46699"},{"ARG_OF_PERICENTER":"50.7863","FILE":"3249421","MEAN_MOTION":"15.06392250","MEAN_ANOMALY":"309.3285","SEMIMAJOR_AXIS":"6925.372","RA_OF_ASC_NODE":"315.6725","REF_FRAME":"TEME","COUNTRY_CODE":"US","EPOCH":"2021-12-23T20:50:13.686144","TLE_LINE2":"2 46700  53.0537 315.6725 0001795  50.7863 309.3285 15.06392250 65286","MEAN_MOTION_DOT":"0.00002301","ECCENTRICITY":"0.00017950","CLASSIFICATION_TYPE":"U","DECAY_DATE":null,"SITE":"AFETR","BSTAR":"0.00017339000000","OBJECT_NAME":"STARLINK-1800","NORAD_CAT_ID":"46700","MEAN_MOTION_DDOT":"0.0000000000000","CENTER_NAME":"EARTH","TLE_LINE1":"1 46700U 20073AG  21357.86821396  .00002301  00000-0  17339-3 0  9992","APOAPSIS":"548.480","RCS_SIZE":"LARGE","ELEMENT_SET_NO":"999","REV_AT_EPOCH":"6528","TIME_SYSTEM":"UTC","EPHEMERIS_TYPE":"0","PERIOD":"95.593","OBJECT_TYPE":"PAYLOAD","OBJECT_ID":"2020-073AG","GP_ID":"192325004","LAUNCH_DATE":"2020-10-18","MEAN_ELEMENT_THEORY":"SGP4","INCLINATION":"53.0537","PERIAPSIS":"545.994"},{"CLASSIFICATION_TYPE":"U","DECAY_DATE":null,"MEAN_MOTION_DOT":"0.00008849","ECCENTRICITY":"0.00019970","TLE_LINE2":"2 46701  53.0555 300.8237 0001997  59.4589 300.6597 15.06411288 65492","SITE":"AFETR","RA_OF_ASC_NODE":"300.8237","REF_FRAME":"TEME","SEMIMAJOR_AXIS":"6925.314","MEAN_ANOMALY":"300.6597","FILE":"3249421","MEAN_MOTION":"15.06411288","ARG_OF_PERICENTER":"59.4589","EPOCH":"2021-12-23T20:01:47.623872","COUNTRY_CODE":"US","EPHEMERIS_TYPE":"0","PERIOD":"95.591","REV_AT_EPOCH":"6549","TIME_SYSTEM":"UTC","ELEMENT_SET_NO":"999","PERIAPSIS":"545.796","INCLINATION":"53.0555","MEAN_ELEMENT_THEORY":"SGP4","LAUNCH_DATE":"2020-10-18","OBJECT_TYPE":"PAYLOAD","OBJECT_ID":"2020-073AH","GP_ID":"192324757","OBJECT_NAME":"STARLINK-1801","BSTAR":"0.00061203000000","RCS_SIZE":"LARGE","APOAPSIS":"548.562","TLE_LINE1":"1 46701U 20073AH  21357.83457898  .00008849  00000-0  61203-3 0  9994","CENTER_NAME":"EARTH","NORAD_CAT_ID":"46701","MEAN_MOTION_DDOT":"0.0000000000000"},{"CENTER_NAME":"EARTH","MEAN_MOTION_DDOT":"0.0000000000000","NORAD_CAT_ID":"46702","RCS_SIZE":"LARGE","APOAPSIS":"548.704","TLE_LINE1":"1 46702U 20073AJ  21357.84748885  .00006008  00000-0  42187-3 0  9990","OBJECT_NAME":"STARLINK-1802","BSTAR":"0.00042187000000","LAUNCH_DATE":"2020-10-18","GP_ID":"192324008","OBJECT_TYPE":"PAYLOAD","OBJECT_ID":"2020-073AJ","PERIAPSIS":"545.728","INCLINATION":"53.0538","MEAN_ELEMENT_THEORY":"SGP4","ELEMENT_SET_NO":"999","PERIOD":"95.592","EPHEMERIS_TYPE":"0","TIME_SYSTEM":"UTC","REV_AT_EPOCH":"6577","COUNTRY_CODE":"US","EPOCH":"2021-12-23T20:20:23.036640","MEAN_MOTION":"15.06399216","FILE":"3249421","ARG_OF_PERICENTER":"52.8258","RA_OF_ASC_NODE":"280.7829","REF_FRAME":"TEME","SEMIMAJOR_AXIS":"6925.351","MEAN_ANOMALY":"307.2927","SITE":"AFETR","TLE_LINE2":"2 46702  53.0538 280.7829 0002148  52.8258 307.2927 15.06399216 65773","DECAY_DATE":null,"CLASSIFICATION_TYPE":"U","ECCENTRICITY":"0.00021480","MEAN_MOTION_DOT":"0.00006008"},{"INCLINATION":"53.0536","MEAN_ELEMENT_THEORY":"SGP4","PERIAPSIS":"546.077","OBJECT_ID":"2020-073AK","OBJECT_TYPE":"PAYLOAD","GP_ID":"192324259","LAUNCH_DATE":"2020-10-18","REV_AT_EPOCH":"6549","TIME_SYSTEM":"UTC","EPHEMERIS_TYPE":"0","PERIOD":"95.593","ELEMENT_SET_NO":"999","TLE_LINE1":"1 46703U 20073AK  21357.87881823  .00000425  00000-0  47440-4 0  9999","RCS_SIZE":"LARGE","APOAPSIS":"548.440","NORAD_CAT_ID":"46703","MEAN_MOTION_DDOT":"0.0000000000000","CENTER_NAME":"EARTH","BSTAR":"0.00004744000000","OBJECT_NAME":"STARLINK-1803","SITE":"AFETR","MEAN_MOTION_DOT":"0.00000425","ECCENTRICITY":"0.00017060","CLASSIFICATION_TYPE":"U","DECAY_DATE":null,"TLE_LINE2":"2 46703  53.0536 300.6319 0001706  50.9865 309.1275 15.06385335 65493","EPOCH":"2021-12-23T21:05:29.895072","COUNTRY_CODE":"US","SEMIMAJOR_AXIS":"6925.394","MEAN_ANOMALY":"309.1275","REF_FRAME":"TEME","RA_OF_ASC_NODE":"300.6319","ARG_OF_PERICENTER":"50.9865","FILE":"3249421","MEAN_MOTION":"15.06385335"},{"COUNTRY_CODE":"US","EPOCH":"2021-12-23T20:36:17.628768","MEAN_MOTION":"15.06396746","FILE":"3249421","ARG_OF_PERICENTER":"39.8567","REF_FRAME":"TEME","RA_OF_ASC_NODE":"280.7174","MEAN_ANOMALY":"320.2627","SEMIMAJOR_AXIS":"6925.359","SITE":"AFETR","TLE_LINE2":"2 46704  53.0570 280.7174 0002804  39.8567 320.2627 15.06396746 65778","DECAY_DATE":null,"CLASSIFICATION_TYPE":"U","ECCENTRICITY":"0.00028040","MEAN_MOTION_DOT":"0.00001925","CENTER_NAME":"EARTH","MEAN_MOTION_DDOT":"0.0000000000000","NORAD_CAT_ID":"46704","RCS_SIZE":"LARGE","APOAPSIS":"549.165","TLE_LINE1":"1 46704U 20073AL  21357.85853737  .00001925  00000-0  14815-3 0  9996","OBJECT_NAME":"STARLINK-1804","BSTAR":"0.00014815000000","LAUNCH_DATE":"2020-10-18","GP_ID":"192324504","OBJECT_TYPE":"PAYLOAD","OBJECT_ID":"2020-073AL","PERIAPSIS":"545.282","MEAN_ELEMENT_THEORY":"SGP4","INCLINATION":"53.0570","ELEMENT_SET_NO":"999","PERIOD":"95.592","EPHEMERIS_TYPE":"0","TIME_SYSTEM":"UTC","REV_AT_EPOCH":"6577"},{"BSTAR":"0.00031746000000","OBJECT_NAME":"STARLINK-1805","TLE_LINE1":"1 46705U 20073AM  21357.87190027  .00004450  00000-0  31746-3 0  9993","APOAPSIS":"548.652","RCS_SIZE":"LARGE","MEAN_MOTION_DDOT":"0.0000000000000","NORAD_CAT_ID":"46705","CENTER_NAME":"EARTH","TIME_SYSTEM":"UTC","REV_AT_EPOCH":"6528","PERIOD":"95.592","EPHEMERIS_TYPE":"0","ELEMENT_SET_NO":"999","MEAN_ELEMENT_THEORY":"SGP4","INCLINATION":"53.0547","PERIAPSIS":"545.767","GP_ID":"192325258","OBJECT_TYPE":"PAYLOAD","OBJECT_ID":"2020-073AM","LAUNCH_DATE":"2020-10-18","SEMIMAJOR_AXIS":"6925.345","MEAN_ANOMALY":"312.8892","REF_FRAME":"TEME","RA_OF_ASC_NODE":"315.6531","ARG_OF_PERICENTER":"47.2272","MEAN_MOTION":"15.06401322","FILE":"3249421","EPOCH":"2021-12-23T20:55:32.183328","COUNTRY_CODE":"US","ECCENTRICITY":"0.00020830","MEAN_MOTION_DOT":"0.00004450","DECAY_DATE":null,"CLASSIFICATION_TYPE":"U","TLE_LINE2":"2 46705  53.0547 315.6531 0002083  47.2272 312.8892 15.06401322 65287","SITE":"AFETR"},{"EPOCH":"2021-12-23T09:08:56.402304","COUNTRY_CODE":"US","REF_FRAME":"TEME","RA_OF_ASC_NODE":"302.8549","MEAN_ANOMALY":"297.4585","SEMIMAJOR_AXIS":"6925.347","FILE":"3248538","MEAN_MOTION":"15.06400460","ARG_OF_PERICENTER":"62.6584","SITE":"AFETR","CLASSIFICATION_TYPE":"U","DECAY_DATE":null,"MEAN_MOTION_DOT":"0.00002389","ECCENTRICITY":"0.00017670","TLE_LINE2":"2 46706  53.0541 302.8549 0001767  62.6584 297.4585 15.06400460 65429","RCS_SIZE":"LARGE","APOAPSIS":"548.436","TLE_LINE1":"1 46706U 20073AN  21357.38120836  .00002389  00000-0  17921-3 0  9999","CENTER_NAME":"EARTH","NORAD_CAT_ID":"46706","MEAN_MOTION_DDOT":"0.0000000000000","OBJECT_NAME":"STARLINK-1807","BSTAR":"0.00017921000000","PERIAPSIS":"545.988","INCLINATION":"53.0541","MEAN_ELEMENT_THEORY":"SGP4","LAUNCH_DATE":"2020-10-18","OBJECT_TYPE":"PAYLOAD","OBJECT_ID":"2020-073AN","GP_ID":"192289170","EPHEMERIS_TYPE":"0","PERIOD":"95.592","REV_AT_EPOCH":"6542","TIME_SYSTEM":"UTC","ELEMENT_SET_NO":"999"},{"ELEMENT_SET_NO":"999","EPHEMERIS_TYPE":"0","PERIOD":"95.593","REV_AT_EPOCH":"6572","TIME_SYSTEM":"UTC","LAUNCH_DATE":"2020-10-18","OBJECT_TYPE":"PAYLOAD","OBJECT_ID":"2020-073AP","GP_ID":"192289922","PERIAPSIS":"545.028","MEAN_ELEMENT_THEORY":"SGP4","INCLINATION":"53.0532","OBJECT_NAME":"STARLINK-1808","BSTAR":"0.00027128000000","CENTER_NAME":"EARTH","NORAD_CAT_ID":"46707","MEAN_MOTION_DDOT":"0.0000000000000","APOAPSIS":"549.499","RCS_SIZE":"LARGE","TLE_LINE1":"1 46707U 20073AP  21357.50469893  .00003759  00000-0  27128-3 0  9995","TLE_LINE2":"2 46707  53.0532 282.3099 0003228  36.8246 323.2964 15.06383742 65729","CLASSIFICATION_TYPE":"U","DECAY_DATE":null,"MEAN_MOTION_DOT":"0.00003759","ECCENTRICITY":"0.00032280","SITE":"AFETR","FILE":"3248538","MEAN_MOTION":"15.06383742","ARG_OF_PERICENTER":"36.8246","REF_FRAME":"TEME","RA_OF_ASC_NODE":"282.3099","MEAN_ANOMALY":"323.2964","SEMIMAJOR_AXIS":"6925.398","COUNTRY_CODE":"US","EPOCH":"2021-12-23T12:06:45.987552"}];
